{
  "type": "FeatureCollection",
  "features": [
    {
      "type": "Feature",
      "properties": {
        "norad_id": 66400,
        "name": "STARLINK-35667",
        "group": "last-30-days",
        "lat": 37.9157988285251,
        "lon": -23.00781190974262,
        "alt_km": 412.53371453193995,
        "timestamp": "2025-12-04T21:36:14.651190+00:00",
        "meta_object_name": "STARLINK-35667",
        "meta_object_id": "2025-257W",
        "meta_epoch": "2025-12-04T15:11:45.785184",
        "meta_mean_motion": 15.4934846,
        "meta_eccentricity": 0.000164,
        "meta_inclination": 53.1595,
        "meta_ra_of_asc_node": 302.5381,
        "meta_arg_of_pericenter": 82.5247,
        "meta_mean_anomaly": 277.5949,
        "meta_ephemeris_type": 0,
        "meta_classification_type": "U",
        "meta_norad_cat_id": 66400,
        "meta_element_set_no": 999,
        "meta_rev_at_epoch": 512,
        "meta_bstar": 0.0030128646,
        "meta_mean_motion_dot": 0.00171072,
        "meta_mean_motion_ddot": 0,
        "tle_line1": "1 66400U 25257W   25338.63316881  .00171072  00000+0  30129-2 0  9998",
        "tle_line2": "2 66400  53.1595 302.5381 0001640  82.5247 277.5949 15.49348460  5122"
      },
      "geometry": {
        "type": "Point",
        "coordinates": [
          -23.00781190974262,
          37.9157988285251
        ]
      }
    },
    {
      "type": "Feature",
      "properties": {
        "norad_id": 66401,
        "name": "STARLINK-35668",
        "group": "last-30-days",
        "lat": 39.12717185039837,
        "lon": -21.161542290901235,
        "alt_km": 412.66880978102745,
        "timestamp": "2025-12-04T21:36:14.651202+00:00",
        "meta_object_name": "STARLINK-35668",
        "meta_object_id": "2025-257X",
        "meta_epoch": "2025-12-04T15:11:15.968544",
        "meta_mean_motion": 15.49327269,
        "meta_eccentricity": 0.00013834,
        "meta_inclination": 53.1594,
        "meta_ra_of_asc_node": 302.536,
        "meta_arg_of_pericenter": 84.7482,
        "meta_mean_anomaly": 275.3685,
        "meta_ephemeris_type": 0,
        "meta_classification_type": "U",
        "meta_norad_cat_id": 66401,
        "meta_element_set_no": 999,
        "meta_rev_at_epoch": 512,
        "meta_bstar": 0.0016590795,
        "meta_mean_motion_dot": 0.00092988,
        "meta_mean_motion_ddot": 0,
        "tle_line1": "1 66401U 25257X   25338.63282371  .00092988  00000+0  16591-2 0  9990",
        "tle_line2": "2 66401  53.1594 302.5360 0001383  84.7482 275.3685 15.49327269  5125"
      },
      "geometry": {
        "type": "Point",
        "coordinates": [
          -21.161542290901235,
          39.12717185039837
        ]
      }
    },
    {
      "type": "Feature",
      "properties": {
        "norad_id": 66402,
        "name": "STARLINK-35644",
        "group": "last-30-days",
        "lat": 36.75358674366805,
        "lon": -24.685553496387993,
        "alt_km": 412.87143781691066,
        "timestamp": "2025-12-04T21:36:14.651212+00:00",
        "meta_object_name": "STARLINK-35644",
        "meta_object_id": "2025-257Y",
        "meta_epoch": "2025-12-04T09:00:41.115168",
        "meta_mean_motion": 15.49361816,
        "meta_eccentricity": 0.00013662,
        "meta_inclination": 53.1595,
        "meta_ra_of_asc_node": 303.7737,
        "meta_arg_of_pericenter": 92.3503,
        "meta_mean_anomaly": 267.7663,
        "meta_ephemeris_type": 0,
        "meta_classification_type": "U",
        "meta_norad_cat_id": 66402,
        "meta_element_set_no": 999,
        "meta_rev_at_epoch": 508,
        "meta_bstar": 0.00204785,
        "meta_mean_motion_dot": 0.00115355,
        "meta_mean_motion_ddot": 0,
        "tle_line1": "1 66402U 25257Y   25338.37547587  .00115355  00000+0  20479-2 0  9999",
        "tle_line2": "2 66402  53.1595 303.7737 0001366  92.3503 267.7663 15.49361816  5080"
      },
      "geometry": {
        "type": "Point",
        "coordinates": [
          -24.685553496387993,
          36.75358674366805
        ]
      }
    },
    {
      "type": "Feature",
      "properties": {
        "norad_id": 66403,
        "name": "STARLINK-35602",
        "group": "last-30-days",
        "lat": 40.35425082892526,
        "lon": -19.175139407755818,
        "alt_km": 412.16311479187243,
        "timestamp": "2025-12-04T21:36:14.651222+00:00",
        "meta_object_name": "STARLINK-35602",
        "meta_object_id": "2025-257Z",
        "meta_epoch": "2025-12-04T12:04:59.236896",
        "meta_mean_motion": 15.49333398,
        "meta_eccentricity": 0.00016424,
        "meta_inclination": 53.1594,
        "meta_ra_of_asc_node": 303.1506,
        "meta_arg_of_pericenter": 71.9763,
        "meta_mean_anomaly": 288.1425,
        "meta_ephemeris_type": 0,
        "meta_classification_type": "U",
        "meta_norad_cat_id": 66403,
        "meta_element_set_no": 999,
        "meta_rev_at_epoch": 510,
        "meta_bstar": 0.0013174378,
        "meta_mean_motion_dot": 0.00073579,
        "meta_mean_motion_ddot": 0,
        "tle_line1": "1 66403U 25257Z   25338.50346339  .00073579  00000+0  13174-2 0  9992",
        "tle_line2": "2 66403  53.1594 303.1506 0001642  71.9763 288.1425 15.49333398  5106"
      },
      "geometry": {
        "type": "Point",
        "coordinates": [
          -19.175139407755818,
          40.35425082892526
        ]
      }
    },
    {
      "type": "Feature",
      "properties": {
        "norad_id": 66404,
        "name": "STARLINK-35691",
        "group": "last-30-days",
        "lat": 41.517988510867866,
        "lon": -17.165997265194136,
        "alt_km": 411.17900136034314,
        "timestamp": "2025-12-04T21:36:14.651231+00:00",
        "meta_object_name": "STARLINK-35691",
        "meta_object_id": "2025-257AA",
        "meta_epoch": "2025-12-04T15:10:17.080032",
        "meta_mean_motion": 15.49358169,
        "meta_eccentricity": 0.00026414,
        "meta_inclination": 53.1593,
        "meta_ra_of_asc_node": 302.5309,
        "meta_arg_of_pericenter": 77.8032,
        "meta_mean_anomaly": 282.3272,
        "meta_ephemeris_type": 0,
        "meta_classification_type": "U",
        "meta_norad_cat_id": 66404,
        "meta_element_set_no": 999,
        "meta_rev_at_epoch": 512,
        "meta_bstar": 0.0035186329,
        "meta_mean_motion_dot": 0.00200705,
        "meta_mean_motion_ddot": 0,
        "tle_line1": "1 66404U 25257AA  25338.63214213  .00200705  00000+0  35186-2 0  9992",
        "tle_line2": "2 66404  53.1593 302.5309 0002641  77.8032 282.3272 15.49358169  5125"
      },
      "geometry": {
        "type": "Point",
        "coordinates": [
          -17.165997265194136,
          41.517988510867866
        ]
      }
    },
    {
      "type": "Feature",
      "properties": {
        "norad_id": 66405,
        "name": "STARLINK-35683",
        "group": "last-30-days",
        "lat": 42.650372774107964,
        "lon": -15.075000115184409,
        "alt_km": 411.8711370450392,
        "timestamp": "2025-12-04T21:36:14.651241+00:00",
        "meta_object_name": "STARLINK-35683",
        "meta_object_id": "2025-257AB",
        "meta_epoch": "2025-12-04T15:09:46.993824",
        "meta_mean_motion": 15.49351449,
        "meta_eccentricity": 0.00015184,
        "meta_inclination": 53.1592,
        "meta_ra_of_asc_node": 302.5279,
        "meta_arg_of_pericenter": 92.4448,
        "meta_mean_anomaly": 267.6735,
        "meta_ephemeris_type": 0,
        "meta_classification_type": "U",
        "meta_norad_cat_id": 66405,
        "meta_element_set_no": 999,
        "meta_rev_at_epoch": 505,
        "meta_bstar": 0.0031464106,
        "meta_mean_motion_dot": 0.00178873,
        "meta_mean_motion_ddot": 0,
        "tle_line1": "1 66405U 25257AB  25338.63179391  .00178873  00000+0  31464-2 0  9995",
        "tle_line2": "2 66405  53.1592 302.5279 0001518  92.4448 267.6735 15.49351449  5053"
      },
      "geometry": {
        "type": "Point",
        "coordinates": [
          -15.075000115184409,
          42.650372774107964
        ]
      }
    },
    {
      "type": "Feature",
      "properties": {
        "norad_id": 66406,
        "name": "STARLINK-34840",
        "group": "last-30-days",
        "lat": 45.78754029612142,
        "lon": -8.356119894321113,
        "alt_km": 411.3674134889725,
        "timestamp": "2025-12-04T21:36:14.651253+00:00",
        "meta_object_name": "STARLINK-34840",
        "meta_object_id": "2025-257AC",
        "meta_epoch": "2025-12-04T15:08:17.830752",
        "meta_mean_motion": 15.49343612,
        "meta_eccentricity": 0.00015287,
        "meta_inclination": 53.159,
        "meta_ra_of_asc_node": 302.5205,
        "meta_arg_of_pericenter": 83.4462,
        "meta_mean_anomaly": 276.6721,
        "meta_ephemeris_type": 0,
        "meta_classification_type": "U",
        "meta_norad_cat_id": 66406,
        "meta_element_set_no": 999,
        "meta_rev_at_epoch": 506,
        "meta_bstar": 0.0022591517,
        "meta_mean_motion_dot": 0.00127421,
        "meta_mean_motion_ddot": 0,
        "tle_line1": "1 66406U 25257AC  25338.63076193  .00127421  00000+0  22592-2 0  9997",
        "tle_line2": "2 66406  53.1590 302.5205 0001528  83.4462 276.6721 15.49343612  5067"
      },
      "geometry": {
        "type": "Point",
        "coordinates": [
          -8.356119894321113,
          45.78754029612142
        ]
      }
    }
  ]
}